{
"type": "FeatureCollection",
"name": "sample_cases",
"crs": { "type": "name", "properties": { "name": "urn:ogc:def:crs:OGC:1.3:CRS84" } },
"features": [
{ "type": "Feature", "properties": { "osm_id": 86492178, "name": "ТЕЦ-5", "station_name_en": "Kharkiv-5 Power Plant", "infra_group": "CHP", "oblast_name_en": "Kharkiv", "lat": 49.97083722186099, "lon": 36.112428728950043, "footprint_count": 89 }, "geometry": { "type": "Polygon", "coordinates": [ [ [ 36.1058859, 49.9684895 ], [ 36.1057624, 49.9725517 ], [ 36.112884, 49.9728001 ], [ 36.1199835, 49.9729643 ], [ 36.1201324, 49.9703298 ], [ 36.1163081, 49.9701853 ], [ 36.1164864, 49.968719 ], [ 36.1058859, 49.9684895 ] ] ] } },
{ "type": "Feature", "properties": { "osm_id": 2271440, "name": "Трипільська ТЕС", "station_name_en": "Trypilska Power Plant", "infra_group": "Thermal", "oblast_name_en": "Kiev", "lat": 50.132790363668278, "lon": 30.750383182414033, "footprint_count": 143 }, "geometry": { "type": "Polygon", "coordinates": [ [ [ 30.7534881, 50.1370533 ], [ 30.7542708, 50.1350828 ], [ 30.7563971, 50.1353764 ], [ 30.7561278, 50.1360665 ], [ 30.7568778, 50.1362099 ], [ 30.7569979, 50.1362329 ], [ 30.7571751, 50.1362305 ], [ 30.7571751, 50.1359452 ], [ 30.7571617, 50.1354775 ], [ 30.7571563, 50.1353365 ], [ 30.7571697, 50.1352351 ], [ 30.7572341, 50.1351234 ], [ 30.7574004, 50.134905 ], [ 30.7574594, 50.1347864 ], [ 30.7576418, 50.1344305 ], [ 30.7577866, 50.1340798 ], [ 30.7578751, 50.1338442 ], [ 30.7583016, 50.1328212 ], [ 30.7588702, 50.1314509 ], [ 30.7589748, 50.1311019 ], [ 30.7590097, 50.1309833 ], [ 30.7590687, 50.1308595 ], [ 30.75929, 50.1305964 ], [ 30.7593732, 50.1304863 ], [ 30.7594617, 50.1303677 ], [ 30.7595488, 50.1302388 ], [ 30.7595663, 50.1301975 ], [ 30.7595676, 50.130164 ], [ 30.759569, 50.1301003 ], [ 30.7595837, 50.1300694 ], [ 30.7585843, 50.1295141 ], [ 30.7581266, 50.129752 ], [ 30.7576753, 50.1300128 ], [ 30.7573951, 50.1302959 ], [ 30.7571783, 50.1306051 ], [ 30.7562544, 50.1328066 ], [ 30.7555854, 50.1327 ], [ 30.7554248, 50.1306002 ], [ 30.7553244, 50.1302886 ], [ 30.75517, 50.1300414 ], [ 30.7548952, 50.1297522 ], [ 30.754627, 50.1295475 ], [ 30.7543144, 50.129364 ], [ 30.7538947, 50.1291933 ], [ 30.7532644, 50.12903 ], [ 30.7525478, 50.128911 ], [ 30.7505485, 50.1286676 ], [ 30.7472569, 50.1292033 ], [ 30.7465896, 50.1294207 ], [ 30.746184, 50.129561 ], [ 30.7451707, 50.1302967 ], [ 30.7447886, 50.1306738 ], [ 30.7442104, 50.1313868 ], [ 30.7437748, 50.1314776 ], [ 30.7433537, 50.1313529 ], [ 30.7426918, 50.1313921 ], [ 30.741458, 50.1346485 ], [ 30.742262, 50.1347864 ], [ 30.7420964, 50.1351109 ], [ 30.7534881, 50.1370533 ] ] ] } },
{ "type": "Feature", "properties": { "osm_id": 7317657, "name": "колишня Каховська ГЕС імені П. С. Непорожнього", "station_name_en": "ex Kakhovskaya HPP named after P. S. Neporozhny", "infra_group": "Hydro", "oblast_name_en": "Kherson", "lat": 46.782129509933718, "lon": 33.363445411886445, "footprint_count": 23 }, "geometry": { "type": "Polygon", "coordinates": [ [ [ 33.3681254, 46.7804552 ], [ 33.371408, 46.7771242 ], [ 33.3739417, 46.7748561 ], [ 33.3748326, 46.7752976 ], [ 33.375503, 46.7756765 ], [ 33.3755847, 46.7757227 ], [ 33.3760775, 46.7760013 ], [ 33.3760959, 46.7760116 ], [ 33.376417, 46.7761932 ], [ 33.3764507, 46.7762122 ], [ 33.3767143, 46.7763612 ], [ 33.3767948, 46.7763906 ], [ 33.3768699, 46.7764127 ], [ 33.3769423, 46.7764164 ], [ 33.3770201, 46.7764072 ], [ 33.3771273, 46.7763759 ], [ 33.3772185, 46.7763263 ], [ 33.3773535, 46.7762183 ], [ 33.3774167, 46.7761678 ], [ 33.3774494, 46.7761425 ], [ 33.3745321, 46.7744888 ], [ 33.3743497, 46.7743834 ], [ 33.3737504, 46.7740596 ], [ 33.3728825, 46.7743643 ], [ 33.3718525, 46.7754112 ], [ 33.3703409, 46.7768788 ], [ 33.3703102, 46.7770145 ], [ 33.3702946, 46.7774488 ], [ 33.3676233, 46.7802327 ], [ 33.3663846, 46.7797854 ], [ 33.3661338, 46.7799769 ], [ 33.3646962, 46.7810495 ], [ 33.3546218, 46.7849727 ], [ 33.3535918, 46.7860746 ], [ 33.3545682, 46.7866476 ], [ 33.3558127, 46.7870517 ], [ 33.3574113, 46.7870076 ], [ 33.357304, 46.7866697 ], [ 33.3573898, 46.7863318 ], [ 33.3578405, 46.7860232 ], [ 33.3590439, 46.7856249 ], [ 33.3655117, 46.7831179 ], [ 33.3663315, 46.7827459 ], [ 33.3668491, 46.7824539 ], [ 33.367281, 46.7821656 ], [ 33.3677852, 46.7817945 ], [ 33.3681366, 46.7814951 ], [ 33.368496, 46.7811425 ], [ 33.3687645, 46.7808962 ], [ 33.3687857, 46.7808495 ], [ 33.3687535, 46.7807926 ], [ 33.36872, 46.7807834 ], [ 33.3686411, 46.7807618 ], [ 33.3681254, 46.7804552 ] ] ] } }
]
}
