{
  "type": "FeatureCollection",
  "features": [
    {
      "type": "Feature",
      "properties": { "name": "Dnipro" },
      "geometry": {
        "type": "LineString",
        "coordinates": [
          [30.50, 51.50],
          [30.42, 51.28],
          [30.10, 51.27],
          [30.08, 51.05],
          [30.50, 50.72],
          [30.52, 50.45],
          [30.73, 50.22],
          [31.20, 49.87],
          [31.80, 49.55],
          [32.18, 49.40],
          [32.68, 49.26],
          [33.00, 49.10],
          [33.38, 49.07],
          [33.82, 49.00],
          [34.22, 48.86],
          [34.62, 48.70],
          [34.92, 48.56],
          [35.00, 48.47],
          [35.10, 48.28],
          [35.14, 48.06],
          [35.10, 47.85],
          [35.00, 47.60],
          [34.52, 47.42],
          [34.00, 47.30],
          [33.38, 47.24],
          [33.00, 46.92],
          [32.62, 46.65],
          [32.20, 46.52],
          [31.98, 46.50]
        ]
      }
    },
    {
      "type": "Feature",
      "properties": { "name": "Dniester" },
      "geometry": {
        "type": "LineString",
        "coordinates": [
          [23.86, 49.07],
          [24.60, 49.20],
          [25.60, 49.10],
          [26.42, 48.90],
          [27.30, 48.62],
          [27.98, 48.42],
          [28.62, 48.10],
          [29.22, 47.80],
          [29.62, 47.56],
          [30.00, 47.30],
          [30.18, 46.90],
          [30.34, 46.50]
        ]
      }
    },
    {
      "type": "Feature",
      "properties": { "name": "Southern Bug" },
      "geometry": {
        "type": "LineString",
        "coordinates": [
          [28.42, 49.72],
          [29.00, 49.44],
          [29.58, 49.10],
          [30.20, 48.78],
          [30.68, 48.52],
          [31.02, 47.98],
          [31.22, 47.48],
          [31.52, 47.08],
          [31.90, 46.80],
          [31.96, 46.60]
        ]
      }
    },
    {
      "type": "Feature",
      "properties": { "name": "Siverskyi Donets" },
      "geometry": {
        "type": "LineString",
        "coordinates": [
          [36.52, 50.30],
          [36.28, 50.00],
          [36.42, 49.72],
          [36.90, 49.42],
          [37.30, 49.20],
          [37.58, 48.92],
          [37.96, 48.70],
          [38.52, 48.48],
          [39.18, 48.28],
          [39.72, 48.06],
          [40.06, 47.82]
        ]
      }
    }
  ]
}
